COSMOS 2251 DEB         
1 33832U 93036BZ  26116.65728068  .00005139  00000+0  10137-2 0  9999
2 33832  74.0548 312.1132 0021091 311.3318 120.4411 14.62589810903969
COSMOS 2251 DEB         
1 33835U 93036CC  26116.65568830  .00004250  00000+0  80624-3 0  9993
2 33835  74.0570 202.7514 0055161 221.8478 295.2433 14.63583525907622
COSMOS 2251 DEB         
1 33836U 93036CD  26116.74595756  .00008915  00000+0  11122-2 0  9999
2 33836  73.9982 351.9545 0025378 168.1814 255.5599 14.82295093660879
COSMOS 2251 DEB         
1 33837U 93036CE  26116.85375962  .00000619  00000+0  16259-3 0  9997
2 33837  74.0111 161.1558 0034612 347.2700  12.7583 14.50999318907557
COSMOS 2251 DEB         
1 33838U 93036CF  26116.84482368  .00001103  00000+0  29821-3 0  9994
2 33838  74.0364 256.6960 0026746 343.8335 181.3718 14.48794232905253
COSMOS 2251 DEB         
1 33839U 93036CG  26116.78453413  .00001035  00000+0  19012-3 0  9992
2 33839  74.0381 306.8937 0083382  24.6120 349.9472 14.64847094915578
COSMOS 2251 DEB         
1 33841U 93036CJ  26116.84977788  .00000498  00000+0  17275-3 0  9999
2 33841  74.0395  29.2419 0019676  81.4945 358.2742 14.38053159900566
COSMOS 2251 DEB         
1 33842U 93036CK  26116.88122767  .00000782  00000+0  23849-3 0  9993
2 33842  74.0334 328.7390 0046184  44.0946 316.3878 14.43010537902864
COSMOS 2251 DEB         
1 33844U 93036CM  26116.86601549  .00000762  00000+0  27819-3 0  9992
2 33844  74.0654 166.0063 0047520 156.9723  17.8559 14.34065620896620
COSMOS 2251 DEB         
1 33848U 93036CR  26116.73002322  .00003127  00000+0  89234-3 0  9993
2 33848  74.0284 106.2496 0041668 136.4312  42.8539 14.45087662897802
COSMOS 2251 DEB         
1 33892U 93036CV  26116.52750444  .00001477  00000+0  61519-3 0  9996
2 33892  73.8031 216.0557 0113974 223.5576 152.2587 14.23801118888733
COSMOS 2251 DEB         
1 33894U 93036CX  26116.81292683  .00000848  00000+0  89038-3 0  9993
2 33894  73.7632 140.0777 0570007  40.0659 324.1054 13.21600968824926
COSMOS 2251 DEB         
1 33896U 93036CZ  26116.87309624  .00000861  00000+0  38930-3 0  9995
2 33896  73.7656 271.2500 0125583  64.5333  55.0005 14.19475890886577
COSMOS 2251 DEB         
1 33899U 93036DC  26116.64204735  .00003768  00000+0  73427-3 0  9999
2 33899  74.0535 187.8085 0057472 216.3505 296.9729 14.62331575908101
COSMOS 2251 DEB         
1 33900U 93036DD  26116.72510477  .00001676  00000+0  35790-3 0  9991
2 33900  74.0157 102.5473 0049146 220.7132 318.6177 14.58936013910041
COSMOS 2251 DEB         
1 33901U 93036DE  26116.43944173  .00112239  00000+0  27009-2 0  9995
2 33901  73.7655 119.3603 0031957 241.5159 118.2828 15.40256018915698
