[{"OBJECT_NAME":"COSMOS 2251 DEB","OBJECT_ID":"1993-036BZ","EPOCH":"2026-04-26T15:46:29.050752","MEAN_MOTION":14.6258981,"ECCENTRICITY":0.0021091,"INCLINATION":74.0548,"RA_OF_ASC_NODE":312.1132,"ARG_OF_PERICENTER":311.3318,"MEAN_ANOMALY":120.4411,"EPHEMERIS_TYPE":0,"CLASSIFICATION_TYPE":"U","NORAD_CAT_ID":33832,"ELEMENT_SET_NO":999,"REV_AT_EPOCH":90396,"BSTAR":0.0010137,"MEAN_MOTION_DOT":5.139e-5,"MEAN_MOTION_DDOT":0},{"OBJECT_NAME":"COSMOS 2251 DEB","OBJECT_ID":"1993-036CC","EPOCH":"2026-04-26T15:44:11.469120","MEAN_MOTION":14.63583525,"ECCENTRICITY":0.0055161,"INCLINATION":74.057,"RA_OF_ASC_NODE":202.7514,"ARG_OF_PERICENTER":221.8478,"MEAN_ANOMALY":295.2433,"EPHEMERIS_TYPE":0,"CLASSIFICATION_TYPE":"U","NORAD_CAT_ID":33835,"ELEMENT_SET_NO":999,"REV_AT_EPOCH":90762,"BSTAR":0.00080624,"MEAN_MOTION_DOT":4.25e-5,"MEAN_MOTION_DDOT":0},{"OBJECT_NAME":"COSMOS 2251 DEB","OBJECT_ID":"1993-036CD","EPOCH":"2026-04-26T17:54:10.733184","MEAN_MOTION":14.82295093,"ECCENTRICITY":0.0025378,"INCLINATION":73.9982,"RA_OF_ASC_NODE":351.9545,"ARG_OF_PERICENTER":168.1814,"MEAN_ANOMALY":255.5599,"EPHEMERIS_TYPE":0,"CLASSIFICATION_TYPE":"U","NORAD_CAT_ID":33836,"ELEMENT_SET_NO":999,"REV_AT_EPOCH":66087,"BSTAR":0.0011122,"MEAN_MOTION_DOT":8.915e-5,"MEAN_MOTION_DDOT":0},{"OBJECT_NAME":"COSMOS 2251 DEB","OBJECT_ID":"1993-036CE","EPOCH":"2026-04-26T20:29:24.831168","MEAN_MOTION":14.50999318,"ECCENTRICITY":0.0034612,"INCLINATION":74.0111,"RA_OF_ASC_NODE":161.1558,"ARG_OF_PERICENTER":347.27,"MEAN_ANOMALY":12.7583,"EPHEMERIS_TYPE":0,"CLASSIFICATION_TYPE":"U","NORAD_CAT_ID":33837,"ELEMENT_SET_NO":999,"REV_AT_EPOCH":90755,"BSTAR":0.00016259,"MEAN_MOTION_DOT":6.19e-6,"MEAN_MOTION_DDOT":0},{"OBJECT_NAME":"COSMOS 2251 DEB","OBJECT_ID":"1993-036CF","EPOCH":"2026-04-26T20:16:32.765952","MEAN_MOTION":14.48794232,"ECCENTRICITY":0.0026746,"INCLINATION":74.0364,"RA_OF_ASC_NODE":256.696,"ARG_OF_PERICENTER":343.8335,"MEAN_ANOMALY":181.3718,"EPHEMERIS_TYPE":0,"CLASSIFICATION_TYPE":"U","NORAD_CAT_ID":33838,"ELEMENT_SET_NO":999,"REV_AT_EPOCH":90525,"BSTAR":0.00029821,"MEAN_MOTION_DOT":1.103e-5,"MEAN_MOTION_DDOT":0},{"OBJECT_NAME":"COSMOS 2251 DEB","OBJECT_ID":"1993-036CG","EPOCH":"2026-04-26T18:49:43.748832","MEAN_MOTION":14.64847094,"ECCENTRICITY":0.0083382,"INCLINATION":74.0381,"RA_OF_ASC_NODE":306.8937,"ARG_OF_PERICENTER":24.612,"MEAN_ANOMALY":349.9472,"EPHEMERIS_TYPE":0,"CLASSIFICATION_TYPE":"U","NORAD_CAT_ID":33839,"ELEMENT_SET_NO":999,"REV_AT_EPOCH":91557,"BSTAR":0.00019012,"MEAN_MOTION_DOT":1.035e-5,"MEAN_MOTION_DDOT":0},{"OBJECT_NAME":"COSMOS 2251 DEB","OBJECT_ID":"1993-036CJ","EPOCH":"2026-04-26T20:23:40.808832","MEAN_MOTION":14.38053159,"ECCENTRICITY":0.0019676,"INCLINATION":74.0395,"RA_OF_ASC_NODE":29.2419,"ARG_OF_PERICENTER":81.4945,"MEAN_ANOMALY":358.2742,"EPHEMERIS_TYPE":0,"CLASSIFICATION_TYPE":"U","NORAD_CAT_ID":33841,"ELEMENT_SET_NO":999,"REV_AT_EPOCH":90056,"BSTAR":0.00017275,"MEAN_MOTION_DOT":4.98e-6,"MEAN_MOTION_DDOT":0},{"OBJECT_NAME":"COSMOS 2251 DEB","OBJECT_ID":"1993-036CK","EPOCH":"2026-04-26T21:08:58.070688","MEAN_MOTION":14.43010537,"ECCENTRICITY":0.0046184,"INCLINATION":74.0334,"RA_OF_ASC_NODE":328.739,"ARG_OF_PERICENTER":44.0946,"MEAN_ANOMALY":316.3878,"EPHEMERIS_TYPE":0,"CLASSIFICATION_TYPE":"U","NORAD_CAT_ID":33842,"ELEMENT_SET_NO":999,"REV_AT_EPOCH":90286,"BSTAR":0.00023849,"MEAN_MOTION_DOT":7.82e-6,"MEAN_MOTION_DDOT":0},{"OBJECT_NAME":"COSMOS 2251 DEB","OBJECT_ID":"1993-036CM","EPOCH":"2026-04-26T20:47:03.738336","MEAN_MOTION":14.3406562,"ECCENTRICITY":0.004752,"INCLINATION":74.0654,"RA_OF_ASC_NODE":166.0063,"ARG_OF_PERICENTER":156.9723,"MEAN_ANOMALY":17.8559,"EPHEMERIS_TYPE":0,"CLASSIFICATION_TYPE":"U","NORAD_CAT_ID":33844,"ELEMENT_SET_NO":999,"REV_AT_EPOCH":89662,"BSTAR":0.00027819,"MEAN_MOTION_DOT":7.62e-6,"MEAN_MOTION_DDOT":0},{"OBJECT_NAME":"COSMOS 2251 DEB","OBJECT_ID":"1993-036CR","EPOCH":"2026-04-26T17:31:14.006208","MEAN_MOTION":14.45087662,"ECCENTRICITY":0.0041668,"INCLINATION":74.0284,"RA_OF_ASC_NODE":106.2496,"ARG_OF_PERICENTER":136.4312,"MEAN_ANOMALY":42.8539,"EPHEMERIS_TYPE":0,"CLASSIFICATION_TYPE":"U","NORAD_CAT_ID":33848,"ELEMENT_SET_NO":999,"REV_AT_EPOCH":89780,"BSTAR":0.00089234,"MEAN_MOTION_DOT":3.127e-5,"MEAN_MOTION_DDOT":0},{"OBJECT_NAME":"COSMOS 2251 DEB","OBJECT_ID":"1993-036CV","EPOCH":"2026-04-26T12:39:36.383616","MEAN_MOTION":14.23801118,"ECCENTRICITY":0.0113974,"INCLINATION":73.8031,"RA_OF_ASC_NODE":216.0557,"ARG_OF_PERICENTER":223.5576,"MEAN_ANOMALY":152.2587,"EPHEMERIS_TYPE":0,"CLASSIFICATION_TYPE":"U","NORAD_CAT_ID":33892,"ELEMENT_SET_NO":999,"REV_AT_EPOCH":88873,"BSTAR":0.00061519139,"MEAN_MOTION_DOT":1.477e-5,"MEAN_MOTION_DDOT":0},{"OBJECT_NAME":"COSMOS 2251 DEB","OBJECT_ID":"1993-036CX","EPOCH":"2026-04-26T19:30:36.878112","MEAN_MOTION":13.21600968,"ECCENTRICITY":0.0570007,"INCLINATION":73.7632,"RA_OF_ASC_NODE":140.0777,"ARG_OF_PERICENTER":40.0659,"MEAN_ANOMALY":324.1054,"EPHEMERIS_TYPE":0,"CLASSIFICATION_TYPE":"U","NORAD_CAT_ID":33894,"ELEMENT_SET_NO":999,"REV_AT_EPOCH":82492,"BSTAR":0.00089038,"MEAN_MOTION_DOT":8.48e-6,"MEAN_MOTION_DDOT":0},{"OBJECT_NAME":"COSMOS 2251 DEB","OBJECT_ID":"1993-036CZ","EPOCH":"2026-04-26T20:57:15.515136","MEAN_MOTION":14.1947589,"ECCENTRICITY":0.0125583,"INCLINATION":73.7656,"RA_OF_ASC_NODE":271.25,"ARG_OF_PERICENTER":64.5333,"MEAN_ANOMALY":55.0005,"EPHEMERIS_TYPE":0,"CLASSIFICATION_TYPE":"U","NORAD_CAT_ID":33896,"ELEMENT_SET_NO":999,"REV_AT_EPOCH":88657,"BSTAR":0.0003893,"MEAN_MOTION_DOT":8.61e-6,"MEAN_MOTION_DDOT":0},{"OBJECT_NAME":"COSMOS 2251 DEB","OBJECT_ID":"1993-036DC","EPOCH":"2026-04-26T15:24:32.891040","MEAN_MOTION":14.62331575,"ECCENTRICITY":0.0057472,"INCLINATION":74.0535,"RA_OF_ASC_NODE":187.8085,"ARG_OF_PERICENTER":216.3505,"MEAN_ANOMALY":296.9729,"EPHEMERIS_TYPE":0,"CLASSIFICATION_TYPE":"U","NORAD_CAT_ID":33899,"ELEMENT_SET_NO":999,"REV_AT_EPOCH":90810,"BSTAR":0.00073427,"MEAN_MOTION_DOT":3.768e-5,"MEAN_MOTION_DDOT":0},{"OBJECT_NAME":"COSMOS 2251 DEB","OBJECT_ID":"1993-036DD","EPOCH":"2026-04-26T17:24:09.052128","MEAN_MOTION":14.58936013,"ECCENTRICITY":0.0049146,"INCLINATION":74.0157,"RA_OF_ASC_NODE":102.5473,"ARG_OF_PERICENTER":220.7132,"MEAN_ANOMALY":318.6177,"EPHEMERIS_TYPE":0,"CLASSIFICATION_TYPE":"U","NORAD_CAT_ID":33900,"ELEMENT_SET_NO":999,"REV_AT_EPOCH":91004,"BSTAR":0.0003579,"MEAN_MOTION_DOT":1.676e-5,"MEAN_MOTION_DDOT":0},{"OBJECT_NAME":"COSMOS 2251 DEB","OBJECT_ID":"1993-036DE","EPOCH":"2026-04-26T10:32:47.765472","MEAN_MOTION":15.40256018,"ECCENTRICITY":0.00319575,"INCLINATION":73.7655,"RA_OF_ASC_NODE":119.3603,"ARG_OF_PERICENTER":241.5159,"MEAN_ANOMALY":118.2828,"EPHEMERIS_TYPE":0,"CLASSIFICATION_TYPE":"U","NORAD_CAT_ID":33901,"ELEMENT_SET_NO":999,"REV_AT_EPOCH":91569,"BSTAR":0.0027008765,"MEAN_MOTION_DOT":0.00112239,"MEAN_MOTION_DDOT":0}]
